NORAD_CAT_ID,OBJECT_NAME,OBJECT_TYPE,EPOCH,MEAN_MOTION,ECCENTRICITY,INCLINATION,RA_OF_ASC_NODE,ARG_OF_PERICENTER,MEAN_ANOMALY,BSTAR,MEAN_MOTION_DOT,MEAN_MOTION_DDOT,TLE_LINE0,TLE_LINE1,TLE_LINE2,SEMIMAJOR_AXIS,PERIOD,APOGEE,PERIGEE,DECAYED
53979.0,STARLINK-5123,PAYLOAD,2023-05-23 16:10:04,15.0883751,0.0001088,53.2156,122.6331,97.768,262.3435,1.175e-05,-1.01e-06,0.0,0 STARLINK-5123,1 53979U 22125R   23143.67366066 -.00000101  00000-0  11750-4 0  9999,2 53979  53.2156 122.6331 0001088  97.7680 262.3435 15.08837510 35257,6917.888,95.438,540.506,539.0,0.0
53979.0,STARLINK-5123,PAYLOAD,2023-05-24 04:53:09,15.08834427,0.000114,53.2154,120.2538,90.3837,269.7286,8.0839e-05,9.99e-06,0.0,0 STARLINK-5123,1 53979U 22125R   23144.20358290  .00000999  00000-0  80839-4 0  9997,2 53979  53.2154 120.2538 0001140  90.3837 269.7286 15.08834427 35406,6917.897,95.438,540.551,538.974,0.0
53979.0,STARLINK-5123,PAYLOAD,2023-05-25 22:13:11,15.08836379,0.0001186,53.216,112.5217,88.7289,271.3839,3.6451e-05,2.92e-06,0.0,0 STARLINK-5123,1 53979U 22125R   23145.92582366  .00000292  00000-0  36451-4 0  9997,2 53979  53.2160 112.5217 0001186  88.7289 271.3839 15.08836379 35594,6917.891,95.438,540.577,538.936,0.0
53979.0,STARLINK-5123,PAYLOAD,2023-05-26 04:34:43,15.08839983,0.0001161,53.2161,111.332,87.7632,272.3494,4.6842e-05,4.58e-06,0.0,0 STARLINK-5123,1 53979U 22125R   23146.19078123  .00000458  00000-0  46842-4 0  9997,2 53979  53.2161 111.3320 0001161  87.7632 272.3494 15.08839983 35706,6917.88,95.438,540.549,538.942,0.0
53979.0,STARLINK-5123,PAYLOAD,2023-05-26 22:03:58,15.08836034,0.0001173,53.2159,108.0614,87.1249,272.9878,-1.7014e-05,-5.59e-06,0.0,0 STARLINK-5123,1 53979U 22125R   23146.91942685 -.00000559  00000-0 -17014-4 0  9993,2 53979  53.2159 108.0614 0001173  87.1249 272.9878 15.08836034 35743,6917.893,95.438,540.569,538.946,0.0
53979.0,STARLINK-5123,PAYLOAD,2023-05-27 02:50:07,15.08835736,0.0001165,53.2161,107.1692,86.8318,273.2807,-2.024e-05,-6.1e-06,0.0,0 STARLINK-5123,1 53979U 22125R   23147.11814741 -.00000610  00000-0 -20240-4 0  9990,2 53979  53.2161 107.1692 0001165  86.8318 273.2807 15.08835736 35841,6917.893,95.438,540.564,538.952,0.0
53979.0,STARLINK-5123,PAYLOAD,2023-05-27 13:57:49,15.08836366,0.0001136,53.2162,105.0884,83.1226,276.9895,9.4784e-07,-2.73e-06,0.0,0 STARLINK-5123,1 53979U 22125R   23147.58182709 -.00000273  00000-0  94784-6 0  9993,2 53979  53.2162 105.0884 0001136  83.1226 276.9895 15.08836366 35845,6917.891,95.438,540.542,538.971,0.0
53979.0,STARLINK-5123,PAYLOAD,2023-05-28 02:40:55,15.08833578,0.0001115,53.2162,102.7104,94.2654,265.8466,-6.3424e-06,-3.89e-06,0.0,0 STARLINK-5123,1 53979U 22125R   23148.11175076 -.00000389  00000-0 -63424-5 0  9997,2 53979  53.2162 102.7104 0001115  94.2654 265.8466 15.08833578 35921,6917.9,95.438,540.536,538.994,0.0
53979.0,STARLINK-5123,PAYLOAD,2023-05-29 02:31:41,15.08842519,0.0001287,53.2175,98.2526,108.3344,251.7788,0.00010306,1.353e-05,0.0,0 STARLINK-5123,1 53979U 22125R   23149.10534313  .00001353  00000-0  10306-3 0  9999,2 53979  53.2175  98.2526 0001287 108.3344 251.7788 15.08842519 36146,6917.873,95.437,540.628,538.847,0.0
53979.0,STARLINK-5123,PAYLOAD,2023-05-29 05:42:27,15.08845975,0.0001257,53.2175,97.6575,106.3087,253.8044,0.00012744,1.741e-05,0.0,0 STARLINK-5123,1 53979U 22125R   23149.23782003  .00001741  00000-0  12744-3 0  9993,2 53979  53.2175  97.6575 0001257 106.3087 253.8044 15.08845975 36093,6917.862,95.437,540.597,538.858,0.0
53979.0,STARLINK-5123,PAYLOAD,2023-05-30 00:47:06,15.08831108,0.0001127,53.2179,94.0801,104.2962,255.8155,3.9915e-05,3.47e-06,0.0,0 STARLINK-5123,1 53979U 22125R   23150.03271153  .00000347  00000-0  39915-4 0  9993,2 53979  53.2179  94.0801 0001127 104.2962 255.8155 15.08831108 36284,6917.908,95.438,540.552,538.993,0.0
53979.0,STARLINK-5123,PAYLOAD,2023-05-30 05:33:15,15.08834198,0.0001303,53.2177,93.1906,124.5583,235.5532,-2.9233e-05,-7.53e-06,0.0,0 STARLINK-5123,1 53979U 22125R   23150.23143295 -.00000753  00000-0 -29233-4 0  9995,2 53979  53.2177  93.1906 0001303 124.5583 235.5532 15.08834198 36240,6917.898,95.438,540.665,538.862,0.0
53979.0,STARLINK-5123,PAYLOAD,2023-05-31 02:13:15,15.0885092,0.000126,53.2177,89.3276,100.2571,259.8563,4.6694e-05,4.56e-06,0.0,0 STARLINK-5123,1 53979U 22125R   23151.09254060  .00000456  00000-0  46694-4 0  9991,2 53979  53.2177  89.3276 0001260 100.2571 259.8563 15.08850920 36443,6917.847,95.437,540.584,538.84,0.0
53979.0,STARLINK-5123,PAYLOAD,2023-05-31 05:24:01,15.08852647,0.0001284,53.2181,88.7309,94.7279,265.386,6.3167e-05,7.18e-06,0.0,0 STARLINK-5123,1 53979U 22125R   23151.22501854  .00000718  00000-0  63167-4 0  9997,2 53979  53.2181  88.7309 0001284  94.7279 265.3860 15.08852647 36390,6917.842,95.437,540.595,538.818,0.0
53979.0,STARLINK-5123,PAYLOAD,2023-06-01 02:04:03,15.08837368,0.0001275,53.2196,84.8615,99.724,260.3896,6.6587e-05,7.72e-06,0.0,0 STARLINK-5123,1 53979U 22125R   23152.08614732  .00000772  00000-0  66587-4 0  9991,2 53979  53.2196  84.8615 0001275  99.7240 260.3896 15.08837368 36595,6917.888,95.438,540.635,538.871,0.0
53979.0,STARLINK-5123,PAYLOAD,2023-06-01 05:14:49,15.08843204,0.0001075,53.2172,84.2726,108.8617,251.2491,7.1548e-05,8.51e-06,0.0,0 STARLINK-5123,1 53979U 22125R   23152.21862274  .00000851  00000-0  71548-4 0  9993,2 53979  53.2172  84.2726 0001075 108.8617 251.2491 15.08843204 36545,6917.871,95.437,540.479,538.992,0.0
53979.0,STARLINK-5123,PAYLOAD,2023-06-02 01:54:50,15.08840057,0.0001338,53.2179,80.4032,103.2672,256.847,-5.7045e-05,-1.196e-05,0.0,0 STARLINK-5123,1 53979U 22125R   23153.07975016 -.00001196  00000-0 -57045-4 0  9998,2 53979  53.2179  80.4032 0001338 103.2672 256.8470 15.08840057 36745,6917.88,95.438,540.671,538.82,0.0
53979.0,STARLINK-5123,PAYLOAD,2023-06-02 05:05:36,15.08838604,0.0001309,53.2176,79.8097,102.57,257.5438,-7.6155e-05,-1.5e-05,0.0,0 STARLINK-5123,1 53979U 22125R   23153.21223175 -.00001500  00000-0 -76155-4 0  9998,2 53979  53.2176  79.8097 0001309 102.5700 257.5438 15.08838604 36698,6917.885,95.438,540.655,538.844,0.0
53979.0,STARLINK-5123,PAYLOAD,2023-06-03 03:21:00,15.08839144,0.0001216,53.2171,75.6496,94.0949,266.0182,5.3266e-06,-2.03e-06,0.0,0 STARLINK-5123,1 53979U 22125R   23154.13959302 -.00000203  00000-0  53266-5 0  9995,2 53979  53.2171  75.6496 0001216  94.0949 266.0182 15.08839144 36902,6917.883,95.438,540.589,538.907,0.0
53979.0,STARLINK-5123,PAYLOAD,2023-06-03 19:14:52,15.08836706,0.0001173,53.217,72.6763,91.3725,268.7402,4.1957e-05,3.8e-06,0.0,0 STARLINK-5123,1 53979U 22125R   23154.80199565  .00000380  00000-0  41957-4 0  9994,2 53979  53.2170  72.6763 0001173  91.3725 268.7402 15.08836706 36937,6917.89,95.438,540.567,538.944,0.0
53979.0,STARLINK-5123,PAYLOAD,2023-06-04 03:11:47,15.08842225,0.0001138,53.2173,71.19,90.8264,269.2859,7.7335e-05,9.43e-06,0.0,0 STARLINK-5123,1 53979U 22125R   23155.13319150  .00000943  00000-0  77335-4 0  9999,2 53979  53.2173  71.1900 0001138  90.8264 269.2859 15.08842225 36980,6917.874,95.437,540.526,538.951,0.0
53979.0,STARLINK-5123,PAYLOAD,2023-06-04 19:05:39,15.08834411,0.0001319,53.2185,68.2185,100.5691,259.5449,2.6491e-06,-2.46e-06,0.0,0 STARLINK-5123,1 53979U 22125R   23155.79560099 -.00000246  00000-0  26491-5 0  9996,2 53979  53.2185  68.2185 0001319 100.5691 259.5449 15.08834411 37154,6917.897,95.438,540.675,538.85,0.0
53979.0,STARLINK-5123,PAYLOAD,2023-06-05 03:02:34,15.08843679,0.0001361,53.2184,66.732,102.2694,257.845,7.6363e-05,9.28e-06,0.0,0 STARLINK-5123,1 53979U 22125R   23156.12679296  .00000928  00000-0  76363-4 0  9992,2 53979  53.2184  66.7320 0001361 102.2694 257.8450 15.08843679 37201,6917.869,95.437,540.676,538.793,0.0
53979.0,STARLINK-5123,PAYLOAD,2023-06-05 10:59:31,15.08837079,0.0001367,53.2183,65.2445,92.9171,267.1977,3.0479e-05,1.97e-06,0.0,0 STARLINK-5123,1 53979U 22125R   23156.45799922  .00000197  00000-0  30479-4 0  9993,2 53979  53.2183  65.2445 0001367  92.9171 267.1977 15.08837079 37185,6917.889,95.438,540.7,538.809,0.0
53979.0,STARLINK-5123,PAYLOAD,2023-06-06 07:39:32,15.08838548,0.0001294,53.2183,61.3771,86.6278,273.4862,-2.2911e-05,-6.52e-06,0.0,0 STARLINK-5123,1 53979U 22125R   23157.31912229 -.00000652  00000-0 -22911-4 0  9996,2 53979  53.2183  61.3771 0001294  86.6278 273.4862 15.08838548 37311,6917.885,95.438,540.645,538.855,0.0
53979.0,STARLINK-5123,PAYLOAD,2023-06-06 10:50:18,15.08840838,0.0001275,53.2184,60.7825,87.8185,272.2953,-9.9211e-06,-4.46e-06,0.0,0 STARLINK-5123,1 53979U 22125R   23157.45160027 -.00000446  00000-0 -99211-5 0  9991,2 53979  53.2184  60.7825 0001275  87.8185 272.2953 15.08840838 37339,6917.878,95.438,540.625,538.861,0.0
53979.0,STARLINK-5123,PAYLOAD,2023-06-06 23:33:22,15.0884568,0.0001258,53.2187,58.4035,89.9945,270.1192,6.5052e-05,7.48e-06,0.0,0 STARLINK-5123,1 53979U 22125R   23157.98151477  .00000748  00000-0  65052-4 0  9996,2 53979  53.2187  58.4035 0001258  89.9945 270.1192 15.08845680 37485,6917.863,95.437,540.598,538.858,0.0
53979.0,STARLINK-5123,PAYLOAD,2023-06-07 02:44:08,15.08851698,0.0001404,53.2187,57.8083,97.3557,262.7595,7.6161e-05,9.25e-06,0.0,0 STARLINK-5123,1 53979U 22125R   23158.11399002  .00000925  00000-0  76161-4 0  9990,2 53979  53.2187  57.8083 0001404  97.3557 262.7595 15.08851698 37431,6917.845,95.437,540.681,538.738,0.0
53979.0,STARLINK-5123,PAYLOAD,2023-06-07 17:02:38,15.08830298,0.0001101,53.2182,55.1323,87.1343,272.9775,5.1015e-05,5.24e-06,0.0,0 STARLINK-5123,1 53979U 22125R   23158.71016430  .00000524  00000-0  51015-4 0  9993,2 53979  53.2182  55.1323 0001101  87.1343 272.9775 15.08830298 37591,6917.91,95.438,540.537,539.013,0.0
53979.0,STARLINK-5123,PAYLOAD,2023-06-07 23:24:10,15.0883201,0.0001138,53.2182,53.9429,87.8716,272.2406,5.8973e-05,6.51e-06,0.0,0 STARLINK-5123,1 53979U 22125R   23158.97512429  .00000651  00000-0  58973-4 0  9991,2 53979  53.2182  53.9429 0001138  87.8716 272.2406 15.08832010 37560,6917.905,95.438,540.557,538.983,0.0
